STARLINK-37174          
1 68767U 26086B   26117.56624529  .00012651  22877-5  35747-4 0  9998
2 68767  97.2809 152.9838 0002256 348.1565  11.9657 15.94414837  1189
