{
  "norad_id": 68767,
  "name": "STARLINK-37174",
  "history": [
    {
      "epoch": "2026-04-27T13:35:23.593056Z",
      "apogee_km": 291.4497656444637,
      "perigee_km": 288.4409935131498,
      "latitude_deg": 1.4643818802943444e-06,
      "longitude_deg": 93.58127655155947,
      "height_km": 291.66751223963433,
      "semi_major_axis_km": 6668.0823795788065,
      "eccentricity": 0.00022561,
      "inclination_deg": 97.2809,
      "raan_deg": 152.9838,
      "arg_perigee_deg": 348.1565,
      "mean_anomaly_deg": 11.9657,
      "mean_motion_rev_day": 15.94414837
    }
  ]
}